NORAD_CAT_ID,OBJECT_NAME,OBJECT_TYPE,EPOCH,MEAN_MOTION,ECCENTRICITY,INCLINATION,RA_OF_ASC_NODE,ARG_OF_PERICENTER,MEAN_ANOMALY,BSTAR,MEAN_MOTION_DOT,MEAN_MOTION_DDOT,TLE_LINE0,TLE_LINE1,TLE_LINE2,SEMIMAJOR_AXIS,PERIOD,APOGEE,PERIGEE,DECAYED
53439.0,STARLINK-4519,PAYLOAD,2023-05-25 14:44:40,15.08842392,0.0001215,53.2175,358.5279,78.3567,281.7561,-5.4235e-05,-1.151e-05,0.0,0 STARLINK-4519,1 53439U 22097BD  23145.61436179 -.00001151  00000-0 -54235-4 0  9999,2 53439  53.2175 358.5279 0001215  78.3567 281.7561 15.08842392 44957,6917.873,95.437,540.579,538.898,0.0
53439.0,STARLINK-4519,PAYLOAD,2023-05-25 17:55:27,15.08842824,0.0001107,53.2183,357.9413,77.7391,282.3725,-3.6396e-05,-8.67e-06,0.0,0 STARLINK-4519,1 53439U 22097BD  23145.74684104 -.00000867  00000-0 -36396-4 0  9997,2 53439  53.2183 357.9413 0001107  77.7391 282.3725 15.08842824 44484,6917.872,95.437,540.503,538.971,0.0
53439.0,STARLINK-4519,PAYLOAD,2023-05-25 21:06:13,15.08844416,0.0001205,53.2181,357.3389,78.9799,281.1328,-2.0072e-05,-6.07e-06,0.0,0 STARLINK-4519,1 53439U 22097BD  23145.87931831 -.00000607  00000-0 -20072-4 0  9999,2 53439  53.2181 357.3389 0001205  78.9799 281.1328 15.08844416 44993,6917.867,95.437,540.565,538.898,0.0
53439.0,STARLINK-4519,PAYLOAD,2023-05-26 19:21:37,15.08834514,0.0001135,53.2182,353.183,86.2929,273.8193,1.1105e-05,-1.11e-06,0.0,0 STARLINK-4519,1 53439U 22097BD  23146.80668426 -.00000111  00000-0  11105-4 0  9996,2 53439  53.2182 353.1830 0001135  86.2929 273.8193 15.08834514 45131,6917.897,95.438,540.547,538.977,0.0
53439.0,STARLINK-4519,PAYLOAD,2023-05-27 00:07:46,15.08836314,0.0001138,53.2178,352.2868,79.9739,280.1382,2.3354e-05,8.4e-07,0.0,0 STARLINK-4519,1 53439U 22097BD  23147.00540294  .00000084  00000-0  23354-4 0  9998,2 53439  53.2178 352.2868 0001138  79.9739 280.1382 15.08836314 44677,6917.892,95.438,540.544,538.969,0.0
53439.0,STARLINK-4519,PAYLOAD,2023-05-27 20:47:47,15.088407,0.0001112,53.2179,348.4194,77.3929,282.7188,6.7449e-05,7.86e-06,0.0,0 STARLINK-4519,1 53439U 22097BD  23147.86652084  .00000786  00000-0  67449-4 0  9995,2 53439  53.2179 348.4194 0001112  77.3929 282.7188 15.08840700 45297,6917.878,95.438,540.513,538.974,0.0
53439.0,STARLINK-4519,PAYLOAD,2023-05-28 17:27:48,15.08842442,0.0001026,53.2177,344.5546,80.3948,279.716,0.00010039,1.31e-05,0.0,0 STARLINK-4519,1 53439U 22097BD  23148.72763956  .00001310  00000-0  10039-3 0  9998,2 53439  53.2177 344.5546 0001026  80.3948 279.7160 15.08842442 44933,6917.873,95.437,540.448,539.028,0.0
53439.0,STARLINK-4519,PAYLOAD,2023-05-28 20:38:34,15.08845633,0.0001072,53.2178,343.9595,78.5583,281.5529,0.00012885,1.764e-05,0.0,0 STARLINK-4519,1 53439U 22097BD  23148.86011686  .00001764  00000-0  12885-3 0  9993,2 53439  53.2178 343.9595 0001072  78.5583 281.5529 15.08845633 45448,6917.863,95.437,540.47,538.987,0.0
53439.0,STARLINK-4519,PAYLOAD,2023-05-29 06:10:53,15.08838235,0.0001023,53.2171,342.1749,86.1036,274.0073,4.2899e-05,3.95e-06,0.0,0 STARLINK-4519,1 53439U 22097BD  23149.25756295  .00000395  00000-0  42899-4 0  9997,2 53439  53.2171 342.1749 0001023  86.1036 274.0073 15.08838235 45011,6917.886,95.438,540.458,539.043,0.0
53439.0,STARLINK-4519,PAYLOAD,2023-05-29 12:32:26,15.08836733,0.0001123,53.2158,340.9856,86.6513,273.4608,3.1698e-05,2.17e-06,0.0,0 STARLINK-4519,1 53439U 22097BD  23149.52252474  .00000217  00000-0  31698-4 0  9995,2 53439  53.2158 340.9856 0001123  86.6513 273.4608 15.08836733 45543,6917.89,95.438,540.532,538.978,0.0
53439.0,STARLINK-4519,PAYLOAD,2023-05-29 20:29:21,15.08831447,0.0001112,53.2171,339.4994,96.2209,263.8909,0.00013795,1.908e-05,0.0,0 STARLINK-4519,1 53439U 22097BD  23149.85372426  .00001908  00000-0  13795-3 0  9996,2 53439  53.2171 339.4994 0001112  96.2209 263.8909 15.08831447 45590,6917.907,95.438,540.541,539.002,0.0
53439.0,STARLINK-4519,PAYLOAD,2023-05-30 06:01:40,15.08842671,0.0001015,53.2171,337.715,110.4636,249.6465,2.4956e-06,-2.48e-06,0.0,0 STARLINK-4519,1 53439U 22097BD  23150.25116062 -.00000248  00000-0  24956-5 0  9994,2 53439  53.2171 337.7150 0001015 110.4636 249.6465 15.08842671 45657,6917.872,95.437,540.439,539.035,0.0
53439.0,STARLINK-4519,PAYLOAD,2023-05-30 18:44:45,15.08846628,0.0001025,53.2174,335.3359,93.49,266.6209,3.2232e-05,2.25e-06,0.0,0 STARLINK-4519,1 53439U 22097BD  23150.78107771  .00000225  00000-0  32232-4 0  9998,2 53439  53.2174 335.3359 0001025  93.4900 266.6209 15.08846628 45246,6917.86,95.437,540.434,539.016,0.0
53439.0,STARLINK-4519,PAYLOAD,2023-05-30 21:55:31,15.08847825,0.0001029,53.2174,334.7408,100.4339,259.6769,4.0838e-05,3.62e-06,0.0,0 STARLINK-4519,1 53439U 22097BD  23150.91355606  .00000362  00000-0  40838-4 0  9998,2 53439  53.2174 334.7408 0001029 100.4339 259.6769 15.08847825 45752,6917.856,95.437,540.433,539.01,0.0
53439.0,STARLINK-4519,PAYLOAD,2023-05-31 05:52:26,15.08844423,0.0001019,53.2172,333.2546,100.5367,259.574,0.00011382,1.524e-05,0.0,0 STARLINK-4519,1 53439U 22097BD  23151.24475534  .00001524  00000-0  11382-3 0  9990,2 53439  53.2172 333.2546 0001019 100.5367 259.5740 15.08844423 45803,6917.867,95.437,540.437,539.027,0.0
53439.0,STARLINK-4519,PAYLOAD,2023-05-31 18:35:32,15.08839458,9.84e-05,53.2172,330.8758,92.5913,267.5192,9.3831e-05,1.206e-05,0.0,0 STARLINK-4519,1 53439U 22097BD  23151.77468005  .00001206  00000-0  93831-4 0  9990,2 53439  53.2172 330.8758 0000984  92.5913 267.5192 15.08839458 45394,6917.882,95.438,540.428,539.066,0.0
53439.0,STARLINK-4519,PAYLOAD,2023-05-31 21:46:18,15.08845707,0.0001011,53.2172,330.2806,93.1732,266.9376,0.00010207,1.337e-05,0.0,0 STARLINK-4519,1 53439U 22097BD  23151.90715554  .00001337  00000-0  10207-3 0  9999,2 53439  53.2172 330.2806 0001011  93.1732 266.9376 15.08845707 45908,6917.863,95.437,540.427,539.029,0.0
53439.0,STARLINK-4519,PAYLOAD,2023-06-02 11:55:34,15.08833071,0.0001047,53.2173,323.1507,98.4754,261.6357,-5.344e-05,-1.138e-05,0.0,0 STARLINK-4519,1 53439U 22097BD  23153.49693237 -.00001138  00000-0 -53440-4 0  9996,2 53439  53.2173 323.1507 0001047  98.4754 261.6357 15.08833071 45653,6917.902,95.438,540.491,539.042,0.0
53439.0,STARLINK-4519,PAYLOAD,2023-06-02 18:17:07,15.08837397,0.000109,53.2179,321.9595,86.4565,273.6552,-0.00010928,-2.026e-05,0.0,0 STARLINK-4519,1 53439U 22097BD  23153.76189230 -.00002026  00000-0 -10928-3 0  9999,2 53439  53.2179 321.9595 0001090  86.4565 273.6552 15.08837397 46181,6917.888,95.438,540.507,538.999,0.0
53439.0,STARLINK-4519,PAYLOAD,2023-06-03 10:10:58,15.0883056,7.68e-05,53.2178,318.9845,95.588,264.5199,0.00013855,1.917e-05,0.0,0 STARLINK-4519,1 53439U 22097BD  23154.42429173  .00001917  00000-0  13855-3 0  9994,2 53439  53.2178 318.9845 0000768  95.5880 264.5199 15.08830560 46288,6917.909,95.438,540.306,539.243,0.0
53439.0,STARLINK-4519,PAYLOAD,2023-06-03 18:07:54,15.08839338,0.0001369,53.2175,317.4986,104.1925,255.9219,1.5446e-05,-4.2e-07,0.0,0 STARLINK-4519,1 53439U 22097BD  23154.75549148 -.00000042  00000-0  15446-4 0  9993,2 53439  53.2175 317.4986 0001369 104.1925 255.9219 15.08839338 45840,6917.882,95.438,540.694,538.8,0.0
53439.0,STARLINK-4519,PAYLOAD,2023-06-04 03:40:13,15.08837401,0.0001136,53.2177,315.7145,102.0503,258.0617,8.4686e-05,1.06e-05,0.0,0 STARLINK-4519,1 53439U 22097BD  23155.15293175  .00001060  00000-0  84686-4 0  9996,2 53439  53.2177 315.7145 0001136 102.0503 258.0617 15.08837401 46397,6917.888,95.438,540.539,538.967,0.0
53439.0,STARLINK-4519,PAYLOAD,2023-06-04 17:58:41,15.08841402,9.75e-05,53.2169,313.0357,88.024,272.0864,0.00014614,2.039e-05,0.0,0 STARLINK-4519,1 53439U 22097BD  23155.74908860  .00002039  00000-0  14614-3 0  9995,2 53439  53.2169 313.0357 0000975  88.0240 272.0864 15.08841402 46481,6917.876,95.437,540.416,539.067,0.0
53439.0,STARLINK-4519,PAYLOAD,2023-06-05 03:31:00,15.08840318,9.7e-05,53.2169,311.2518,92.2383,267.8721,0.00011929,1.611e-05,0.0,0 STARLINK-4519,1 53439U 22097BD  23156.14653000  .00001611  00000-0  11929-3 0  9994,2 53439  53.2169 311.2518 0000970  92.2383 267.8721 15.08840318 46052,6917.879,95.438,540.415,539.073,0.0
53439.0,STARLINK-4519,PAYLOAD,2023-06-05 17:49:28,15.08838476,0.0001072,53.2172,308.5761,93.4269,266.6845,0.00016277,2.304e-05,0.0,0 STARLINK-4519,1 53439U 22097BD  23156.74269024  .00002304  00000-0  16277-3 0  9990,2 53439  53.2172 308.5761 0001072  93.4269 266.6845 15.08838476 46635,6917.885,95.438,540.492,539.008,0.0
53439.0,STARLINK-4519,PAYLOAD,2023-06-06 09:43:19,15.08845943,0.0001161,53.2178,305.6027,88.6069,271.5056,-3.9349e-05,-9.14e-06,0.0,0 STARLINK-4519,1 53439U 22097BD  23157.40509039 -.00000914  00000-0 -39349-4 0  9990,2 53439  53.2178 305.6027 0001161  88.6069 271.5056 15.08845943 46240,6917.862,95.437,540.53,538.924,0.0
53439.0,STARLINK-4519,PAYLOAD,2023-06-06 12:54:06,15.08839544,0.0001005,53.2172,305.0061,89.0292,271.0816,5.7792e-06,-1.96e-06,0.0,0 STARLINK-4519,1 53439U 22097BD  23157.53757252 -.00000196  00000-0  57792-5 0  9990,2 53439  53.2172 305.0061 0001005  89.0292 271.0816 15.08839544 46751,6917.882,95.438,540.442,539.052,0.0
53439.0,STARLINK-4519,PAYLOAD,2023-06-06 16:04:52,15.08847923,9.53e-05,53.217,304.4116,100.9567,259.1533,-3.8789e-05,-9.05e-06,0.0,0 STARLINK-4519,1 53439U 22097BD  23157.67004831 -.00000905  00000-0 -38789-4 0  9996,2 53439  53.2170 304.4116 0000953 100.9567 259.1533 15.08847923 46777,6917.856,95.437,540.38,539.062,0.0
53439.0,STARLINK-4519,PAYLOAD,2023-06-07 12:44:52,15.08854116,0.000117,53.2168,300.5459,85.26,274.8526,-0.00016873,-2.973e-05,0.0,0 STARLINK-4519,1 53439U 22097BD  23158.53116694 -.00002973  00000-0 -16873-3 0  9999,2 53439  53.2168 300.5459 0001170  85.2600 274.8526 15.08854116 46909,6917.837,95.437,540.512,538.893,0.0
53439.0,STARLINK-4519,PAYLOAD,2023-06-07 15:55:39,15.08842018,8.81e-05,53.2167,299.9511,92.1459,267.9634,5.8532e-05,6.44e-06,0.0,0 STARLINK-4519,1 53439U 22097BD  23158.66364777  .00000644  00000-0  58532-4 0  9990,2 53439  53.2167 299.9511 0000881  92.1459 267.9634 15.08842018 46434,6917.874,95.437,540.349,539.13,0.0
